NAYIF-1 (EO-88)         
1 42017U 17008BX  20105.76402131  .00001659  00000-0  66694-4 0  9998
2 42017  97.3647 174.2454 0006381 171.8354 188.2989 15.26318728175838
MAX VALIER SAT          
1 42778U 17036P   20105.79032481  .00000867  00000-0  40338-4 0  9990
2 42778  97.3120 161.1660 0010685 241.9486 118.0671 15.22505760156040
RADFXSAT (FOX-1B)       
1 43017U 17073E   20105.65410865  .00000400  00000-0  37193-4 0  9997
2 43017  97.7249  20.3464 0255676 258.1861  99.0573 14.78880765129735
FOX-1D (AO-92)          
1 43137U 18004AC  20105.86346805  .00000979  00000-0  43391-4 0  9998
2 43137  97.4499 177.4448 0007505 281.0269  79.0124 15.24001515125366
DIWATA-2B               
1 43678U 18084H   20106.08160574 -.00000065  00000-0 -73665-6 0  9995
2 43678  97.8739 224.5225 0010802  33.8485 326.3441 14.91617240 79573
ES'HAIL 2               
1 43700U 18090A   20105.88813993  .00000125  00000-0  00000-0 0  9997
2 43700   0.0151 143.8268 0002650 277.0231 128.1739  1.00271841  5077
FOX-1CLIFF (AO-95)      
1 43770U 18099N   20105.85582826  .00000058  00000-0  10586-4 0  9997
2 43770  97.7096 178.3324 0015689  53.5127 306.7536 14.94947767 74415
ITASAT 1                
1 43786U 18099AE  20105.73345023  .00000344  00000-0  36365-4 0  9998
2 43786  97.7111 178.5859 0016181  48.0251 312.2345 14.95292237 74416
JY1SAT (JO-97)          
1 43803U 18099AX  20106.08989212  .00000621  00000-0  61172-4 0  9993
2 43803  97.7074 178.7710 0016279  47.6605 312.5991 14.95464096 74467
PSAT2 (NO-104)          
1 44354U 19036R   20105.31351244  .00016852  00000-0  25133-3 0  9999
2 44354  28.5317  81.5513 0368557 346.5074  12.5885 15.02347204 44166
BRICSAT2 (NO-103)       
1 44355U 19036S   20106.19594819  .00034691  00000-0  50078-3 0  9991
2 44355  28.5313  70.1930 0351041   4.9814 355.4145 15.06767615 44341
JAISAT-1                
1 44419U 19038F   20105.78933628  .00001029  00000-0  62299-4 0  9991
2 44419  97.5324  68.1612 0021532 354.8293   5.2712 15.12681503 42976
DUCHIFAT-3              
1 44854U 19089C   20106.14929641  .00000361  00000-0  35650-4 0  9990
2 44854  36.9668 112.4540 0009070 274.9732  84.9983 14.99021716 18798
ORBITAL FACTORY 2 (OF-2)
1 45113U 19071C   20105.99986406  .00001272  00000-0  50752-4 0  9996
2 45113  51.6431 310.0226 0013108 185.9892 174.0935 15.33109918 11398
HUSKYSAT-1              
1 45119U 19071J   20105.92253126  .00001795  00000-0  66342-4 0  9993
2 45119  51.6427 310.2570 0012442 181.8949 178.1988 15.33347964 11377
